STARLINK-37066          
1 68081U 26042N   26159.15136889  .00028005  00000+0  83689-3 0  9992
2 68081  53.1583 115.8035 0001198  66.2438 293.8690 15.34399393 16194
STARLINK-37054          
1 68082U 26042P   26159.16867142  .00032430  00000+0  96705-3 0  9997
2 68082  53.1577 117.3265 0001296  90.7879 269.3272 15.34391575 16176
STARLINK-37065          
1 68083U 26042Q   26159.19602896  .00020679  00000+0  62165-3 0  9999
2 68083  53.1588 117.5220 0001203  95.4467 264.6673 15.34390836 16177
STARLINK-37037          
1 68084U 26042R   26159.16025583  .00032841  00000+0  97915-3 0  9994
2 68084  53.1575 117.2867 0001297  95.5733 264.5418 15.34391082 16178
STARLINK-37068          
1 68085U 26042S   26159.13874115  .00022184  00000+0  66587-3 0  9995
2 68085  53.1602 115.7127 0001309 102.5753 257.5396 15.34394317 16190
STARLINK-37067          
1 68086U 26042T   26159.21231723  .00028910  00000+0  86414-3 0  9991
2 68086  53.1562 115.4506 0001410  81.4906 278.6256 15.34375457 16207
STARLINK-37062          
1 68087U 26042U   26159.14973487  .00026517  00000+0  79317-3 0  9999
2 68087  53.1595 117.2071 0001328  96.3804 263.7350 15.34399700 16174
STARLINK-37059          
1 68088U 26042V   26159.18761769  .00019987  00000+0  60153-3 0  9993
2 68088  53.1571 117.4710 0001178 104.6264 255.4870 15.34376395 16177
STARLINK-37004          
1 68089U 26042W   26159.20654818  .00011432  00000+0  34912-3 0  9994
2 68089  53.1601 117.5828 0001245  85.7505 274.3640 15.34385856 16172
STARLINK-36320          
1 68090U 26042X   26159.15394534  .00025664  00000+0  76828-3 0  9990
2 68090  53.1597 117.2503 0001304  78.6252 281.4897 15.34392377 16170
STARLINK-36324          
1 68091U 26042Y   26159.14553006  .00028755  00000+0  85843-3 0  9992
2 68091  53.1601 117.1928 0002746  86.0928 274.0389 15.34416906 16170
STARLINK-36896          
1 68092U 26042Z   26159.17708919  .00023783  00000+0  71282-3 0  9999
2 68092  53.1583 117.3931 0001123  83.7468 276.3663 15.34399039 16163
STARLINK-36251          
1 68093U 26042AA  26159.17498359  .00015734  00000+0  47595-3 0  9991
2 68093  53.1579 117.3810 0001221  94.6245 265.4897 15.34391144 16165
STARLINK-36787          
1 68094U 26042AB  26159.14763097  .00031271  00000+0  93222-3 0  9995
2 68094  53.1584 117.2012 0002781  98.0463 262.0855 15.34417001 16165
STARLINK-36790          
1 68095U 26042AC  26159.16235795  .00012835  00000+0  39024-3 0  9992
2 68095  53.1575 117.3018 0001029  99.7946 260.3173 15.34409821 16166
STARLINK-36328          
1 68096U 26042AD  26159.19812849  .00018031  00000+0  54366-3 0  9997
2 68096  53.1591 117.5206 0001369 100.1846 259.9311 15.34390795 16166
STARLINK-36853          
1 68097U 26042AE  26159.18340010  .00016265  00000+0  49168-3 0  9994
2 68097  53.1578 117.4354 0001183  83.8836 276.2301 15.34387507 16163
STARLINK-37022          
1 68101U 26044A   26159.16392090  .00015492  00000+0  48135-3 0  9999
2 68101  97.2832 119.5212 0001693  81.1279 279.0156 15.33434967 15446
STARLINK-37046          
1 68102U 26044B   26159.16120215  .00017414  00000+0  54067-3 0  9995
2 68102  97.2855 119.5251 0001231  86.0575 274.0809 15.33433581 15447
STARLINK-37018          
1 68103U 26044C   26159.15848280  .00021708  00000+0  67304-3 0  9993
2 68103  97.2833 119.5287 0001009  86.7296 273.4062 15.33434201 15447
STARLINK-37041          
1 68104U 26044D   26158.63099916  .00028392  00000+0  87932-3 0  9995
2 68104  97.2838 119.0203 0002245  83.1948 276.9550 15.33412648 15366
STARLINK-37021          
1 68105U 26044E   26159.15032672  .00024237  00000+0  75103-3 0  9991
2 68105  97.2830 119.5371 0001744  85.8401 274.3041 15.33429539 15449
STARLINK-37024          
1 68106U 26044F   26159.14760784  .00029483  00000+0  91230-3 0  9990
2 68106  97.2837 119.5419 0001896  85.6190 274.5270 15.33433391 15448
STARLINK-37005          
1 68107U 26044G   26159.15576366  .00027143  00000+0  84007-3 0  9998
2 68107  97.2828 119.5327 0000950 100.5445 259.5905 15.33444599 15447
STARLINK-37017          
1 68108U 26044H   26159.14488882  .00026397  00000+0  81748-3 0  9992
2 68108  97.2829 119.5451 0001606  81.2139 278.9286 15.33429799 15443
STARLINK-36833          
1 68109U 26044J   26158.81317482  .00027611  00000+0  85514-3 0  9998
2 68109  97.2848 119.2344 0002285  96.1025 264.0478 15.33417649 15390
STARLINK-36830          
1 68110U 26044K   26158.68537919  .00032165  00000+0  99518-3 0  9993
2 68110  97.2834 119.1003 0001799  83.8015 276.3433 15.33419326 15378
STARLINK-36791          
1 68111U 26044L   26158.81045714  .00031747  00000+0  98142-3 0  9993
2 68111  97.2838 119.2374 0001585  99.3781 260.7641 15.33448880 15397
STARLINK-36893          
1 68112U 26044M   26159.13401340  .00021848  00000+0  67745-3 0  9997
2 68112  97.2834 119.5627 0001683  98.4098 261.7336 15.33428199 15447
STARLINK-36937          
1 68113U 26044N   26158.80229604  .00028018  00000+0  86758-3 0  9993
2 68113  97.2838 119.2488 0001709  87.2694 272.8744 15.33421744 15390
