OBJECT_NAME,OBJECT_ID,EPOCH,MEAN_MOTION,ECCENTRICITY,INCLINATION,RA_OF_ASC_NODE,ARG_OF_PERICENTER,MEAN_ANOMALY,EPHEMERIS_TYPE,CLASSIFICATION_TYPE,NORAD_CAT_ID,ELEMENT_SET_NO,REV_AT_EPOCH,BSTAR,MEAN_MOTION_DOT,MEAN_MOTION_DDOT
STARLINK-37066,2026-042N,2026-06-08T03:37:58.272096,15.34399393,.0001198,53.1583,115.8035,66.2438,293.8690,0,U,68081,999,1619,.83689033E-3,.28005E-3,0
STARLINK-37054,2026-042P,2026-06-08T04:02:53.210688,15.34391575,.00012964,53.1577,117.3265,90.7879,269.3272,0,U,68082,999,1617,.96704535E-3,.3243E-3,0
STARLINK-37065,2026-042Q,2026-06-08T04:42:16.902144,15.34390836,.00012036,53.1588,117.5220,95.4467,264.6673,0,U,68083,999,1617,.62164572E-3,.20679E-3,0
STARLINK-37037,2026-042R,2026-06-08T03:50:46.103712,15.34391082,.00012973,53.1575,117.2867,95.5733,264.5418,0,U,68084,999,1617,.9791471E-3,.32841E-3,0
STARLINK-37068,2026-042S,2026-06-08T03:19:47.235360,15.34394317,.00013097,53.1602,115.7127,102.5753,257.5396,0,U,68085,999,1619,.66587089E-3,.22184E-3,0
STARLINK-37067,2026-042T,2026-06-08T05:05:44.208672,15.34375457,.00014109,53.1562,115.4506,81.4906,278.6256,0,U,68086,999,1620,.86414474E-3,.2891E-3,0
STARLINK-37062,2026-042U,2026-06-08T03:35:37.092768,15.34399700,.0001328,53.1595,117.2071,96.3804,263.7350,0,U,68087,999,1617,.79316644E-3,.26517E-3,0
STARLINK-37059,2026-042V,2026-06-08T04:30:10.168416,15.34376395,.00011786,53.1571,117.4710,104.6264,255.4870,0,U,68088,999,1617,.60153475E-3,.19987E-3,0
STARLINK-37004,2026-042W,2026-06-08T04:57:25.762752,15.34385856,.00012455,53.1601,117.5828,85.7505,274.3640,0,U,68089,999,1617,.34911935E-3,.11432E-3,0
STARLINK-36320,2026-042X,2026-06-08T03:41:40.877376,15.34392377,.0001304,53.1597,117.2503,78.6252,281.4897,0,U,68090,999,1617,.76827868E-3,.25664E-3,0
STARLINK-36324,2026-042Y,2026-06-08T03:29:33.797184,15.34416906,.00027466,53.1601,117.1928,86.0928,274.0389,0,U,68091,999,1617,.85842939E-3,.28755E-3,0
STARLINK-36896,2026-042Z,2026-06-08T04:15:00.506016,15.34399039,.00011231,53.1583,117.3931,83.7468,276.3663,0,U,68092,999,1616,.71281834E-3,.23783E-3,0
STARLINK-36251,2026-042AA,2026-06-08T04:11:58.582176,15.34391144,.00012211,53.1579,117.3810,94.6245,265.4897,0,U,68093,999,1616,.47595048E-3,.15734E-3,0
STARLINK-36787,2026-042AB,2026-06-08T03:32:35.315808,15.34417001,.00027814,53.1584,117.2012,98.0463,262.0855,0,U,68094,999,1616,.9322238E-3,.31271E-3,0
STARLINK-36790,2026-042AC,2026-06-08T03:53:47.726880,15.34409821,.00010291,53.1575,117.3018,99.7946,260.3173,0,U,68095,999,1616,.39024102E-3,.12835E-3,0
STARLINK-36328,2026-042AD,2026-06-08T04:45:18.301536,15.34390795,.00013695,53.1591,117.5206,100.1846,259.9311,0,U,68096,999,1616,.54365852E-3,.18031E-3,0
STARLINK-36853,2026-042AE,2026-06-08T04:24:05.768640,15.34387507,.00011836,53.1578,117.4354,83.8836,276.2301,0,U,68097,999,1616,.49167501E-3,.16265E-3,0
STARLINK-37022,2026-044A,2026-06-08T03:56:02.765760,15.33434967,.00016931,97.2832,119.5212,81.1279,279.0156,0,U,68101,999,1544,.48134557E-3,.15492E-3,0
STARLINK-37046,2026-044B,2026-06-08T03:52:07.865760,15.33433581,.00012311,97.2855,119.5251,86.0575,274.0809,0,U,68102,999,1544,.54066514E-3,.17414E-3,0
STARLINK-37018,2026-044C,2026-06-08T03:48:12.913920,15.33434201,.00010097,97.2833,119.5287,86.7296,273.4062,0,U,68103,999,1544,.67303943E-3,.21708E-3,0
STARLINK-37041,2026-044D,2026-06-07T15:08:38.327424,15.33412648,.00022456,97.2838,119.0203,83.1948,276.9550,0,U,68104,999,1536,.87932297E-3,.28392E-3,0
STARLINK-37021,2026-044E,2026-06-08T03:36:28.228608,15.33429539,.00017447,97.2830,119.5371,85.8401,274.3041,0,U,68105,999,1544,.75102536E-3,.24237E-3,0
STARLINK-37024,2026-044F,2026-06-08T03:32:33.317376,15.33433391,.00018964,97.2837,119.5419,85.6190,274.5270,0,U,68106,999,1544,.9123014E-3,.29483E-3,0
STARLINK-37005,2026-044G,2026-06-08T03:44:17.980224,15.33444599,.000095,97.2828,119.5327,100.5445,259.5905,0,U,68107,999,1544,.84007231E-3,.27143E-3,0
STARLINK-37017,2026-044H,2026-06-08T03:28:38.394048,15.33429799,.00016067,97.2829,119.5451,81.2139,278.9286,0,U,68108,999,1544,.81748456E-3,.26397E-3,0
STARLINK-36833,2026-044J,2026-06-07T19:30:58.304448,15.33417649,.00022852,97.2848,119.2344,96.1025,264.0478,0,U,68109,999,1539,.85514045E-3,.27611E-3,0
STARLINK-36830,2026-044K,2026-06-07T16:26:56.762016,15.33419326,.00017998,97.2834,119.1003,83.8015,276.3433,0,U,68110,999,1537,.9951774E-3,.32165E-3,0
STARLINK-36791,2026-044L,2026-06-07T19:27:03.496896,15.33448880,.00015856,97.2838,119.2374,99.3781,260.7641,0,U,68111,999,1539,.98142469E-3,.31747E-3,0
STARLINK-36893,2026-044M,2026-06-08T03:12:58.757760,15.33428199,.00016838,97.2834,119.5627,98.4098,261.7336,0,U,68112,999,1544,.67745349E-3,.21848E-3,0
STARLINK-36937,2026-044N,2026-06-07T19:15:18.377856,15.33421744,.00017098,97.2838,119.2488,87.2694,272.8744,0,U,68113,999,1539,.86757735E-3,.28018E-3,0
